CTC1_L_00376016-03
1 47567U 25954GQ  26037.47805556  .00000000  00000+0  00000-0 0  9991
2 47567  75.0000 180.0000 0000000   0.0000   0.0000 13.16009617    17
CTC1_L_00376016-04
1 47568U 25769FA  26037.47805556  .00000000  00000+0  00000-0 0  9996
2 47568  75.0000 180.0000 0000000   0.0000  90.0000 13.16009617    17
CTC1_L_00376017-01
1 47569U 26095KT  26037.47805556  .00000000  00000+0  00000-0 0  9990
2 47569  75.0000 192.0000 0000000   0.0000 192.0000 13.16009617    14
CTC1_L_00376017-02
1 47570U 23509HR  26037.47805556  .00000000  00000+0  00000-0 0  9999
2 47570  75.0000 192.0000 0000000   0.0000 282.0000 13.16009617    16
CTC1_L_00376017-03
1 47571U 24856UU  26037.47805556  .00000000  00000+0  00000-0 0  9996
2 47571  75.0000 192.0000 0000000   0.0000  12.0000 13.16009617    18
CTC1_L_00376017-04
1 47572U 26073P   26037.47805556  .00000000  00000+0  00000-0 0  9990
2 47572  75.0000 192.0000 0000000   0.0000 102.0000 13.16009617    19
CTC1_L_00376018-01
1 47573U 22651XM  26037.47805556  .00000000  00000+0  00000-0 0  9999
2 47573  75.0000 204.0000 0000000   0.0000 204.0000 13.16009617    17
CTC1_L_00376018-02
1 47574U 24176UE  26037.47805556  .00000000  00000+0  00000-0 0  9994
2 47574  75.0000 204.0000 0000000   0.0000 294.0000 13.16009617    17
CTC1_L_00376018-03
1 47575U 25828S   26037.47805556  .00000000  00000+0  00000-0 0  9990
2 47575  75.0000 204.0000 0000000   0.0000  24.0000 13.16009617    19
CTC1_L_00376018-04
1 47576U 26199RN  26037.47805556  .00000000  00000+0  00000-0 0  9993
2 47576  75.0000 204.0000 0000000   0.0000 114.0000 13.16009617    10
CTC1_L_00376019-01
1 47577U 23191NP  26037.47805556  .00000000  00000+0  00000-0 0  9993
2 47577  75.0000 216.0000 0000000   0.0000 216.0000 13.16009617    17
CTC1_L_00376019-02
1 47578U 22868ZN  26037.47805556  .00000000  00000+0  00000-0 0  9994
2 47578  75.0000 216.0000 0000000   0.0000 306.0000 13.16009617    18
CTC1_L_00376019-03
1 47579U 23518RS  26037.47805556  .00000000  00000+0  00000-0 0  9998
2 47579  75.0000 216.0000 0000000   0.0000  36.0000 13.16009617    19
CTC1_L_00376019-04
1 47580U 22501NU  26037.47805556  .00000000  00000+0  00000-0 0  9991
2 47580  75.0000 216.0000 0000000   0.0000 126.0000 13.16009617    11
CTC1_L_00376020-01
1 47581U 25695ZN  26037.47805556  .00000000  00000+0  00000-0 0  9999
2 47581  75.0000 228.0000 0000000   0.0000 228.0000 13.16009617    18
CTC1_L_00376020-02
1 47582U 24855OB  26037.47805556  .00000000  00000+0  00000-0 0  9997
2 47582  75.0000 228.0000 0000000   0.0000 318.0000 13.16009617    19
CTC1_L_00376020-03
1 47583U 26784LE  26037.47805556  .00000000  00000+0  00000-0 0  9991
2 47583  75.0000 228.0000 0000000   0.0000  48.0000 13.16009617    10
CTC1_L_00376020-04
1 47584U 24598ZU  26037.47805556  .00000000  00000+0  00000-0 0  9993
2 47584  75.0000 228.0000 0000000   0.0000 138.0000 13.16009617    11
CTC1_L_00376021-01
1 47585U 22913OD  26037.47805556  .00000000  00000+0  00000-0 0  9993
2 47585  75.0000 240.0000 0000000   0.0000 240.0000 13.16009617    10
CTC1_L_00376021-02
1 47586U 24561BT  26037.47805556  .00000000  00000+0  00000-0 0  9995
2 47586  75.0000 240.0000 0000000   0.0000 330.0000 13.16009617    11
CTC1_L_00376021-03
1 47587U 23903TD  26037.47805556  .00000000  00000+0  00000-0 0  9995
2 47587  75.0000 240.0000 0000000   0.0000  60.0000 13.16009617    12
CTC1_L_00376021-04
1 47588U 24553JD  26037.47805556  .00000000  00000+0  00000-0 0  9998
2 47588  75.0000 240.0000 0000000   0.0000 150.0000 13.16009617    13
CTC1_L_00376022-01
1 47589U 26408EV  26037.47805556  .00000000  00000+0  00000-0 0  9990
2 47589  75.0000 252.0000 0000000   0.0000 252.0000 13.16009617    10
CTC1_L_00376022-02
1 47590U 22354EH  26037.47805556  .00000000  00000+0  00000-0 0  9998
2 47590  75.0000 252.0000 0000000   0.0000 342.0000 13.16009617    12
CTC1_L_00376022-03
1 47591U 25366GR  26037.47805556  .00000000  00000+0  00000-0 0  9995
2 47591  75.0000 252.0000 0000000   0.0000  72.0000 13.16009617    13
CTC1_L_00376022-04
1 47592U 26607WE  26037.47805556  .00000000  00000+0  00000-0 0  9995
2 47592  75.0000 252.0000 0000000   0.0000 162.0000 13.16009617    14
CTC1_L_00376023-01
1 47593U 24452SZ  26037.47805556  .00000000  00000+0  00000-0 0  9992
2 47593  75.0000 264.0000 0000000   0.0000 264.0000 13.16009617    11
CTC1_L_00376023-02
1 47594U 25658FL  26037.47805556  .00000000  00000+0  00000-0 0  9992
2 47594  75.0000 264.0000 0000000   0.0000 354.0000 13.16009617    12
CTC1_L_00376023-03
1 47595U 24038VA  26037.47805556  .00000000  00000+0  00000-0 0  9994
2 47595  75.0000 264.0000 0000000   0.0000  84.0000 13.16009617    13
CTC1_L_00376023-04
1 47596U 23629BL  26037.47805556  .00000000  00000+0  00000-0 0  9990
2 47596  75.0000 264.0000 0000000   0.0000 174.0000 13.16009617    14
CTC1_L_00376024-01
1 47597U 25571OC  26037.47805556  .00000000  00000+0  00000-0 0  9999
2 47597  75.0000 276.0000 0000000   0.0000 276.0000 13.16009617    11
CTC1_L_00376024-02
1 47598U 24614HG  26037.47805556  .00000000  00000+0  00000-0 0  9997
2 47598  75.0000 276.0000 0000000   0.0000   6.0000 13.16009617    13
CTC1_L_00376024-03
1 47599U 26049Y   26037.47805556  .00000000  00000+0  00000-0 0  9992
2 47599  75.0000 276.0000 0000000   0.0000  96.0000 13.16009617    13
CTC1_L_00376024-04
1 47600U 23013CP  26037.47805556  .00000000  00000+0  00000-0 0  9993
2 47600  75.0000 276.0000 0000000   0.0000 186.0000 13.16009617    16
CTC1_L_00376025-01
1 47601U 23735RW  26037.47805556  .00000000  00000+0  00000-0 0  9995
2 47601  75.0000 288.0000 0000000   0.0000 288.0000 13.16009617    13
CTC1_L_00376025-02
1 47602U 24376ID  26037.47805556  .00000000  00000+0  00000-0 0  9998
2 47602  75.0000 288.0000 0000000   0.0000  18.0000 13.16009617    15
CTC1_L_00376025-03
1 47603U 22374MI  26037.47805556  .00000000  00000+0  00000-0 0  9995
2 47603  75.0000 288.0000 0000000   0.0000 108.0000 13.16009617    16
CTC1_L_00376025-04
1 47604U 25844QU  26037.47805556  .00000000  00000+0  00000-0 0  9991
2 47604  75.0000 288.0000 0000000   0.0000 198.0000 13.16009617    16
CTC1_L_00376026-01
1 47605U 23502TP  26037.47805556  .00000000  00000+0  00000-0 0  9991
2 47605  75.0000 300.0000 0000000   0.0000 300.0000 13.16009617    17
CTC1_L_00376026-02
1 47606U 23120UJ  26037.47805556  .00000000  00000+0  00000-0 0  9998
2 47606  75.0000 300.0000 0000000   0.0000  30.0000 13.16009617    18
CTC1_L_00376026-03
1 47607U 24939GV  26037.47805556  .00000000  00000+0  00000-0 0  9998
2 47607  75.0000 300.0000 0000000   0.0000 120.0000 13.16009617    19
CTC1_L_00376026-04
1 47608U 24663UA  26037.47805556  .00000000  00000+0  00000-0 0  9993
2 47608  75.0000 300.0000 0000000   0.0000 210.0000 13.16009617    10
CTC1_L_00376027-01
1 47609U 22982IR  26037.47805556  .00000000  00000+0  00000-0 0  9996
2 47609  75.0000 312.0000 0000000   0.0000 312.0000 13.16009617    17
CTC1_L_00376027-02
1 47610U 26961HR  26037.47805556  .00000000  00000+0  00000-0 0  9999
2 47610  75.0000 312.0000 0000000   0.0000  42.0000 13.16009617    19
CTC1_L_00376027-03
1 47611U 25475WW  26037.47805556  .00000000  00000+0  00000-0 0  9999
2 47611  75.0000 312.0000 0000000   0.0000 132.0000 13.16009617    10
CTC1_L_00376027-04
1 47612U 24489DS  26037.47805556  .00000000  00000+0  00000-0 0  9994
2 47612  75.0000 312.0000 0000000   0.0000 222.0000 13.16009617    11
CTC1_L_00376028-01
1 47613U 26547RR  26037.47805556  .00000000  00000+0  00000-0 0  9992
2 47613  75.0000 324.0000 0000000   0.0000 324.0000 13.16009617    18
CTC1_L_00376028-02
1 47614U 25421LW  26037.47805556  .00000000  00000+0  00000-0 0  9993
2 47614  75.0000 324.0000 0000000   0.0000  54.0000 13.16009617    19
CTC1_L_00376028-03
1 47615U 26882SJ  26037.47805556  .00000000  00000+0  00000-0 0  9996
2 47615  75.0000 324.0000 0000000   0.0000 144.0000 13.16009617    10
CTC1_L_00376028-04
1 47616U 22503CU  26037.47805556  .00000000  00000+0  00000-0 0  9993
2 47616  75.0000 324.0000 0000000   0.0000 234.0000 13.16009617    11
CTC1_L_00376029-01
1 47617U 26386VT  26037.47805556  .00000000  00000+0  00000-0 0  9997
2 47617  75.0000 336.0000 0000000   0.0000 336.0000 13.16009617    18
CTC1_L_00376029-02
1 47618U 25794Y   26037.47805556  .00000000  00000+0  00000-0 0  9990
2 47618  75.0000 336.0000 0000000   0.0000  66.0000 13.16009617    19
CTC1_L_00376029-03
1 47619U 26776OT  26037.47805556  .00000000  00000+0  00000-0 0  9992
2 47619  75.0000 336.0000 0000000   0.0000 156.0000 13.16009617    10
CTC1_L_00376029-04
1 47620U 24541LM  26037.47805556  .00000000  00000+0  00000-0 0  9992
2 47620  75.0000 336.0000 0000000   0.0000 246.0000 13.16009617    12
CTC1_L_00376030-01
1 47621U 25901KJ  26037.47805556  .00000000  00000+0  00000-0 0  9994
2 47621  75.0000 348.0000 0000000   0.0000 348.0000 13.16009617    19
CTC1_L_00376030-02
1 47622U 26844NX  26037.47805556  .00000000  00000+0  00000-0 0  9992
2 47622  75.0000 348.0000 0000000   0.0000  78.0000 13.16009617    10
CTC1_L_00376030-03
1 47623U 25071ST  26037.47805556  .00000000  00000+0  00000-0 0  9994
2 47623  75.0000 348.0000 0000000   0.0000 168.0000 13.16009617    11
CTC1_L_00376030-04
1 47624U 26806HN  26037.47805556  .00000000  00000+0  00000-0 0  9992
2 47624  75.0000 348.0000 0000000   0.0000 258.0000 13.16009617    12
